GLOBALSTAR M084         
1 38040U 11080A   25308.56670694 -.00000082  00000+0  12265-3 0  9995
2 38040  52.0025 341.1086 0000332  43.2554 121.8548 12.62264655640395
GLOBALSTAR M080         
1 38041U 11080B   25308.53800498 -.00000074  00000+0  16765-3 0  9990
2 38041  52.0077 342.8368 0000781 111.1721  52.9066 12.62270241640514
GLOBALSTAR M082         
1 38042U 11080C   25308.30262485 -.00000097  00000+0  38011-4 0  9998
2 38042  52.0081 299.0297 0000592  99.4107   4.7856 12.62264502641190
GLOBALSTAR M092         
1 38043U 11080D   25308.49398933 -.00000103  00000+0  68575-5 0  9994
2 38043  52.0104  28.8301 0000556 109.8833 263.5902 12.62267411639672
GLOBALSTAR M090         
1 38044U 11080E   25308.16574687 -.00000096  00000+0  41615-4 0  9997
2 38044  52.0128 293.3298 0000310  86.7367 354.2288 12.62263747641290
GLOBALSTAR M086         
1 38045U 11080F   25308.25482594 -.00000084  00000+0  11117-3 0  9993
2 38045  51.9902 293.3546 0000649 285.0966  88.1576 12.62279014641252
GLOBALSTAR M097         
1 39072U 13005A   25308.04206957 -.00000088  00000+0  89948-4 0  9999
2 39072  52.0039 208.6986 0000664  78.2789 281.8153 12.62266884588473
GLOBALSTAR M093         
1 39073U 13005B   25308.64954090 -.00000048  00000+0  31041-3 0  9990
2 39073  52.0092 200.1116 0000624  97.2775 262.8163 12.62270148588509
